STARLINK-2010
1 27634C 21012Q   21325.16109039 -.00018039  00000-0 -12087-2 0  3258
2 27634  53.0538 277.5132 0002147  63.0523 264.8469 15.06414244    11
